[{"OBJECT_NAME":"FORMOSAT 7-4","OBJECT_ID":"2019-036M","EPOCH":"2026-03-09T23:18:59.695200","MEAN_MOTION":14.96015542,"ECCENTRICITY":0.00014118,"INCLINATION":23.9994,"RA_OF_ASC_NODE":43.1446,"ARG_OF_PERICENTER":104.6737,"MEAN_ANOMALY":255.392,"EPHEMERIS_TYPE":0,"CLASSIFICATION_TYPE":"U","NORAD_CAT_ID":44350,"ELEMENT_SET_NO":999,"REV_AT_EPOCH":36919,"BSTAR":0.00031042546,"MEAN_MOTION_DOT":3.87e-5,"MEAN_MOTION_DDOT":0},{"OBJECT_NAME":"STARLINK-35763","OBJECT_ID":"2025-298Q","EPOCH":"2026-03-09T21:34:03.944928","MEAN_MOTION":14.98333596,"ECCENTRICITY":0.00024722,"INCLINATION":70.0022,"RA_OF_ASC_NODE":14.1324,"ARG_OF_PERICENTER":260.566,"MEAN_ANOMALY":99.522,"EPHEMERIS_TYPE":0,"CLASSIFICATION_TYPE":"U","NORAD_CAT_ID":67089,"ELEMENT_SET_NO":999,"REV_AT_EPOCH":1324,"BSTAR":0.00069308893,"MEAN_MOTION_DOT":8.187e-5,"MEAN_MOTION_DDOT":0}]
